[{"OBJECT_NAME":"STARLINK-36193","OBJECT_ID":"2025-298AA","EPOCH":"2026-03-09T22:00:01.999584","MEAN_MOTION":14.99161072,"ECCENTRICITY":0.00026795,"INCLINATION":70.0009,"RA_OF_ASC_NODE":13.8189,"ARG_OF_PERICENTER":268.8131,"MEAN_ANOMALY":76.3461,"EPHEMERIS_TYPE":0,"CLASSIFICATION_TYPE":"U","NORAD_CAT_ID":67099,"ELEMENT_SET_NO":999,"REV_AT_EPOCH":590,"BSTAR":-0.001795619,"MEAN_MOTION_DOT":-0.00021917,"MEAN_MOTION_DDOT":0},{"OBJECT_NAME":"CZ-6A DEB","OBJECT_ID":"2022-151LD","EPOCH":"2026-03-09T16:54:45.205632","MEAN_MOTION":14.92245273,"ECCENTRICITY":0.00472182,"INCLINATION":98.6465,"RA_OF_ASC_NODE":142.156,"ARG_OF_PERICENTER":203.7976,"MEAN_ANOMALY":156.1058,"EPHEMERIS_TYPE":0,"CLASSIFICATION_TYPE":"U","NORAD_CAT_ID":54553,"ELEMENT_SET_NO":999,"REV_AT_EPOCH":10459,"BSTAR":0.004690798,"MEAN_MOTION_DOT":0.00049128,"MEAN_MOTION_DDOT":0}]
